OBJECT_NAME,OBJECT_ID,EPOCH,MEAN_MOTION,ECCENTRICITY,INCLINATION,RA_OF_ASC_NODE,ARG_OF_PERICENTER,MEAN_ANOMALY,EPHEMERIS_TYPE,CLASSIFICATION_TYPE,NORAD_CAT_ID,ELEMENT_SET_NO,REV_AT_EPOCH,BSTAR,MEAN_MOTION_DOT,MEAN_MOTION_DDOT
ICEYE-X43,2024-149BZ,2026-05-19T04:55:52.048128,14.99768716,.000527,97.6763,216.5707,176.6967,183.4292,0,U,60539,999,9577,.15099E-3,.1808E-4,0
HAWK-10A,2024-149CA,2026-05-19T03:35:49.042752,14.96410313,.0004222,97.6894,215.5612,148.8311,211.3162,0,U,60540,999,9564,.11571E-3,.1254E-4,0
UMBRA-09,2024-149CB,2026-05-19T04:29:13.666272,15.17061729,.0001242,97.6966,225.9194,123.2738,236.8614,0,U,60541,999,9632,.48739E-3,.9583E-4,0
QPS-SAR-8 (AMATERU-IV),2024-149CC,2026-05-19T04:27:15.204096,15.03796463,.0003165,97.6649,218.5861,186.4989,173.6196,0,U,60542,999,9591,.19406E-3,.2606E-4,0
ARCTIC WEATHER SATELLITE,2024-149CD,2026-05-19T04:56:17.237184,14.89801874,.0002163,97.6808,210.4980,163.7036,196.4251,0,U,60543,999,9498,.60867E-4,.53E-5,0
CAPELLA-15 (ACADIA-5),2024-149CE,2026-05-19T03:46:46.913952,14.92483347,.0004667,97.6779,212.7830,159.2782,200.8627,0,U,60544,999,9552,.82359E-4,.79E-5,0
HAWK-10B,2024-149CF,2026-05-19T03:35:36.322080,14.96411401,.0005543,97.6816,214.9455,173.3934,186.7362,0,U,60545,999,9564,.12035E-3,.1307E-4,0
ICEYE-X39,2024-149CG,2026-05-19T04:31:18.259392,14.99706771,.0002671,97.6808,216.6075,173.3537,186.7722,0,U,60546,999,9577,.94968E-4,.1113E-4,0
UMBRA-10,2024-149CH,2026-05-19T04:28:34.293792,15.17068623,.0002154,97.6972,225.9443,101.4076,258.7399,0,U,60547,999,9633,.50549E-3,.9945E-4,0
ICEYE-X33,2024-149CJ,2026-05-19T04:02:37.561056,15.00913169,.0000237,97.7190,218.4843,311.2931,48.8273,0,U,60548,999,9585,.24685E-3,.3084E-4,0
ICEYE-X40,2024-149CK,2026-05-19T04:14:38.004000,14.97845318,.0005162,97.6822,216.1406,154.0035,206.1448,0,U,60549,999,9573,.87091E-4,.966E-5,0
SATELIOT_1,2024-149CL,2026-05-19T04:05:05.807904,14.97943808,.0007168,97.6762,215.5531,156.2203,203.9352,0,U,60550,999,9572,.14233E-3,.1621E-4,0
BRO-14,2024-149CM,2026-05-19T04:03:55.452384,14.96118392,.0006553,97.6880,215.4685,180.1929,179.9290,0,U,60551,999,9565,.71351E-4,.746E-5,0
SATELIOT_3,2024-149CN,2026-05-19T05:06:04.835808,14.97917294,.0005596,97.6817,216.3590,167.3775,192.7588,0,U,60552,999,9574,.11516E-3,.1299E-4,0
BRO-15,2024-149CP,2026-05-19T03:37:38.388000,14.96072278,.0008292,97.6806,215.0796,173.9057,186.2266,0,U,60553,999,9566,.841E-4,.888E-5,0
UM5-RIBAT,2024-149CQ,2026-05-19T04:57:15.481152,15.00891709,.0003538,97.6657,217.3976,107.6679,252.4932,0,U,60554,999,9584,.13613E-3,.1673E-4,0
UM5-EOSAT,2024-149CR,2026-05-19T04:20:38.543424,15.01298354,.0007324,97.6657,218.2780,199.9135,160.1805,0,U,60555,999,9586,.15559E-3,.1942E-4,0
LASARSAT,2024-247Q,2026-05-19T03:31:28.614144,15.44419805,.0005504,44.9757,65.1608,164.4067,195.6993,0,U,62391,999,7882,.42745E-3,.19905E-3,0
CROCUBE,2024-247T,2026-05-19T04:15:51.016320,15.46046066,.0005257,44.9735,62.7604,168.6607,191.4401,0,U,62394,999,7885,.46732E-3,.23066E-3,0
TEVEL2-4,2025-052D,2026-05-18T23:01:44.097024,15.33496421,.00024,97.3934,35.3230,159.0387,201.0955,0,U,63213,999,6563,.36563E-3,.11765E-3,0
TEVEL2-5,2025-052E,2026-05-18T15:36:52.794720,15.33331220,.00023023,97.3934,34.9700,158.8541,201.2797,0,U,63214,999,6558,.34047251E-3,.10892E-3,0
TEVEL2-6,2025-052F,2026-05-18T11:11:40.506720,15.33288647,.00023975,97.3937,34.7706,161.5493,198.5837,0,U,63215,999,6555,.33767165E-3,.10787E-3,0
TEVEL2-1,2025-052H,2026-05-19T03:19:15.804768,15.32810060,.0001954,97.3912,35.1001,172.3515,187.7757,0,U,63217,999,6564,.32825E-3,.10326E-3,0
TEVEL2-3,2025-052J,2026-05-19T04:46:58.006272,15.32859906,.0001966,97.3910,35.1794,171.3981,188.7295,0,U,63218,999,6565,.33168E-3,.10452E-3,0
TEVEL2-2,2025-052K,2026-05-19T03:19:55.041600,15.32816144,.0001879,97.3907,35.1025,173.5609,186.5657,0,U,63219,999,6564,.32879E-3,.10345E-3,0
TEVEL2-9,2025-052AD,2026-05-18T10:13:21.444096,15.30913495,.00042382,97.3973,33.8279,235.7490,124.3350,0,U,63237,999,6547,.29029069E-3,.8597E-4,0
TEVEL2-7,2025-052AE,2026-05-18T15:46:48.940032,15.30648698,.0004429,97.3975,33.9866,235.1952,124.8873,0,U,63238,999,6550,.34489E-3,.10147E-3,0
TEVEL2-8,2025-052AF,2026-05-19T04:31:20.848800,15.30640291,.0004366,97.3972,34.4936,233.4623,126.6216,0,U,63239,999,6558,.32846E-3,.9657E-4,0
HADES-ICM,2025-052BN,2026-05-18T11:26:57.794784,16.07070045,.00114354,97.3723,43.1467,187.6548,172.4561,0,U,63492,999,6611,.21526123E-2,.1623772E-1,.18256914E-2
FORESAIL-1 PRIME,2025-276DS,2026-05-18T11:25:18.444288,15.18401791,.0002332,97.4207,212.2958,169.5381,190.5902,0,U,66778,999,2589,.17124E-3,.3455E-4,0
